[{"OBJECT_NAME":"JILIN-1 05","OBJECT_ID":"2017-074B","EPOCH":"2026-03-09T21:56:30.612480","MEAN_MOTION":15.3245271,"ECCENTRICITY":0.00045948,"INCLINATION":97.4781,"RA_OF_ASC_NODE":173.8936,"ARG_OF_PERICENTER":206.4038,"MEAN_ANOMALY":153.6971,"EPHEMERIS_TYPE":0,"CLASSIFICATION_TYPE":"U","NORAD_CAT_ID":43023,"ELEMENT_SET_NO":999,"REV_AT_EPOCH":45879,"BSTAR":0.00026108793,"MEAN_MOTION_DOT":8.104e-5,"MEAN_MOTION_DDOT":0},{"OBJECT_NAME":"STARLINK-32844","OBJECT_ID":"2025-018Q","EPOCH":"2026-03-09T22:07:10.014816","MEAN_MOTION":15.30210529,"ECCENTRICITY":0.00013263,"INCLINATION":53.1607,"RA_OF_ASC_NODE":308.5294,"ARG_OF_PERICENTER":146.5789,"MEAN_ANOMALY":213.5296,"EPHEMERIS_TYPE":0,"CLASSIFICATION_TYPE":"U","NORAD_CAT_ID":62820,"ELEMENT_SET_NO":999,"REV_AT_EPOCH":6320,"BSTAR":0.00087323671,"MEAN_MOTION_DOT":0.00025601,"MEAN_MOTION_DDOT":0}]
